GLOBALSTAR M045         
1 25676U 99019A   25342.81692352 -.00000080  00000+0  12392-3 0  9994
2 25676  51.9937 167.5339 0001085 102.1993 271.9771 12.27070321214832
GLOBALSTAR M019         
1 25677U 99019B   25342.24502376 -.00000094  00000+0 -44255-4 0  9998
2 25677  51.9891 311.7794 0001455 328.8019  44.7084 12.13875953206289
GLOBALSTAR M044         
1 25678U 99019C   25342.84808144 -.00000023  00000+0  84338-3 0  9993
2 25678  51.9982 283.3132 0006658  18.1926  16.1659 11.90260934192126
GLOBALSTAR M042         
1 25679U 99019D   25342.54440310 -.00000042  00000+0  46908-3 0  9990
2 25679  52.0025 278.7357 0002883 312.2868 219.1250 12.22093421206571
GLOBALSTAR M025         
1 25770U 99031A   25342.86088361 -.00000072  00000+0 -13095-3 0  9990
2 25770  51.9800 114.6238 0003109  86.7619  84.4943 11.22558710501326
GLOBALSTAR M049         
1 25771U 99031B   25342.89868928 -.00000112  00000+0 -16350-2 0  9990
2 25771  51.9837 158.0814 0002126 331.8175  28.2506 11.12124303136868
GLOBALSTAR M047         
1 25772U 99031C   25342.82156215 -.00000078  00000+0 -23204-3 0  9991
2 25772  51.9800 138.5396 0016209 198.4303 161.5917 11.31931807490882
GLOBALSTAR M052         
1 25773U 99031D   25342.94869535 -.00000037  00000+0  97026-3 0  9998
2 25773  51.9870 264.1855 0003173  88.0489 350.5378 11.15062512498004
